[{"OBJECT_NAME":"PE2_FLT1 (TYVAK-0261)","OBJECT_ID":"2024-043H","EPOCH":"2026-03-09T22:11:30.005376","MEAN_MOTION":14.96611647,"ECCENTRICITY":0.00060821,"INCLINATION":97.8224,"RA_OF_ASC_NODE":199.4267,"ARG_OF_PERICENTER":22.6188,"MEAN_ANOMALY":337.53,"EPHEMERIS_TYPE":0,"CLASSIFICATION_TYPE":"U","NORAD_CAT_ID":59105,"ELEMENT_SET_NO":999,"REV_AT_EPOCH":10980,"BSTAR":0.00036312112,"MEAN_MOTION_DOT":4.08e-5,"MEAN_MOTION_DDOT":0},{"OBJECT_NAME":"CENTAURI-8","OBJECT_ID":"2025-009DK","EPOCH":"2026-03-09T17:25:58.526112","MEAN_MOTION":14.9722833,"ECCENTRICITY":0.00030201,"INCLINATION":97.7096,"RA_OF_ASC_NODE":150.1876,"ARG_OF_PERICENTER":109.5881,"MEAN_ANOMALY":250.5667,"EPHEMERIS_TYPE":0,"CLASSIFICATION_TYPE":"U","NORAD_CAT_ID":62714,"ELEMENT_SET_NO":999,"REV_AT_EPOCH":6259,"BSTAR":0.00038891127,"MEAN_MOTION_DOT":4.445e-5,"MEAN_MOTION_DDOT":0}]
